NORAD_CAT_ID,OBJECT_NAME,OBJECT_TYPE,EPOCH,MEAN_MOTION,ECCENTRICITY,INCLINATION,RA_OF_ASC_NODE,ARG_OF_PERICENTER,MEAN_ANOMALY,BSTAR,MEAN_MOTION_DOT,MEAN_MOTION_DDOT,TLE_LINE0,TLE_LINE1,TLE_LINE2,SEMIMAJOR_AXIS,PERIOD,APOGEE,PERIGEE,DECAYED
50203.0,STARLINK-3257,PAYLOAD,2024-05-27 14:47:22,15.08849262,9.98e-05,53.2191,281.9903,69.955,290.155,7.1197e-05,8.46e-06,0.0,0 STARLINK-3257,1 50203U 21125AZ  24148.61623647  .00000846  00000-0  71197-4 0  9992,2 50203  53.2191 281.9903 0000998  69.9550 290.1550 15.08849262138509,6917.852,95.437,540.407,539.027,0.0
50203.0,STARLINK-3257,PAYLOAD,2024-05-27 17:58:08,15.08852963,0.0001169,53.2195,281.3948,95.4492,264.6634,0.0002156,3.146e-05,0.0,0 STARLINK-3257,1 50203U 21125AZ  24148.74871340  .00003146  00000-0  21560-3 0  9995,2 50203  53.2195 281.3948 0001169  95.4492 264.6634 15.08852963135380,6917.841,95.437,540.514,538.897,0.0
50203.0,STARLINK-3257,PAYLOAD,2024-05-28 13:02:47,15.08837833,0.000133,53.2192,277.8295,96.8597,263.2546,0.0002535,3.749e-05,0.0,0 STARLINK-3257,1 50203U 21125AZ  24149.54360192  .00003749  00000-0  25350-3 0  9992,2 50203  53.2192 277.8295 0001330  96.8597 263.2546 15.08837833135503,6917.887,95.438,540.672,538.832,0.0
50203.0,STARLINK-3257,PAYLOAD,2024-05-28 14:38:10,15.08838593,0.000132,53.2191,277.5319,95.8237,264.2905,0.0002379,3.5e-05,0.0,0 STARLINK-3257,1 50203U 21125AZ  24149.60984136  .00003500  00000-0  23790-3 0  9990,2 50203  53.2191 277.5319 0001320  95.8237 264.2905 15.08838593138658,6917.885,95.438,540.663,538.837,0.0
50203.0,STARLINK-3257,PAYLOAD,2024-05-28 16:13:33,15.0884372,0.0001019,53.2176,277.2323,107.3294,252.781,0.00024699,3.646e-05,0.0,0 STARLINK-3257,1 50203U 21125AZ  24149.67607774  .00003646  00000-0  24699-3 0  9997,2 50203  53.2176 277.2323 0001019 107.3294 252.7810 15.08843720138666,6917.869,95.437,540.439,539.029,0.0
50203.0,STARLINK-3257,PAYLOAD,2024-05-29 14:28:57,15.08848739,0.000118,53.2184,273.0721,70.0952,290.0167,-3.8532e-06,-3.49e-06,0.0,0 STARLINK-3257,1 50203U 21125AZ  24150.60343925 -.00000349  00000-0 -38532-5 0  9999,2 50203  53.2184 273.0721 0001180  70.0952 290.0167 15.08848739138808,6917.854,95.437,540.535,538.902,0.0
50203.0,STARLINK-3257,PAYLOAD,2024-05-30 14:19:43,15.08852246,0.0001368,53.2182,268.6117,63.1009,297.0123,0.00015655,2.205e-05,0.0,0 STARLINK-3257,1 50203U 21125AZ  24151.59703061  .00002205  00000-0  15655-3 0  9999,2 50203  53.2182 268.6117 0001368  63.1009 297.0123 15.08852246138952,6917.843,95.437,540.654,538.762,0.0
50203.0,STARLINK-3257,PAYLOAD,2024-05-30 17:30:29,15.08858921,0.0001272,53.2181,268.0151,80.7659,279.3477,0.0001536,2.159e-05,0.0,0 STARLINK-3257,1 50203U 21125AZ  24151.72950464  .00002159  00000-0  15360-3 0  9996,2 50203  53.2181 268.0151 0001272  80.7659 279.3477 15.08858921138976,6917.823,95.436,540.568,538.808,0.0
50203.0,STARLINK-3257,PAYLOAD,2024-05-31 12:35:07,15.08848213,0.0001151,53.2189,264.4469,100.2541,259.8581,9.7987e-05,1.272e-05,0.0,0 STARLINK-3257,1 50203U 21125AZ  24152.52439025  .00001272  00000-0  97987-4 0  9991,2 50203  53.2189 264.4469 0001151 100.2541 259.8581 15.08848213135957,6917.855,95.437,540.517,538.924,0.0
50203.0,STARLINK-3257,PAYLOAD,2024-05-31 14:10:30,15.08849763,0.0001182,53.2188,264.1488,95.6257,264.487,0.00012335,1.676e-05,0.0,0 STARLINK-3257,1 50203U 21125AZ  24152.59062901  .00001676  00000-0  12335-3 0  9994,2 50203  53.2188 264.1488 0001182  95.6257 264.4870 15.08849763139104,6917.851,95.437,540.533,538.898,0.0
50203.0,STARLINK-3257,PAYLOAD,2024-06-01 14:01:17,15.08844389,0.0001141,53.2181,259.6914,91.0596,269.0527,-1.7721e-05,-5.7e-06,0.0,0 STARLINK-3257,1 50203U 21125AZ  24153.58423378 -.00000570  00000-0 -17721-4 0  9992,2 50203  53.2181 259.6914 0001141  91.0596 269.0527 15.08844389136118,6917.867,95.437,540.521,538.943,0.0
50203.0,STARLINK-3257,PAYLOAD,2024-06-02 05:55:09,15.08830451,0.0001197,53.2187,256.718,96.742,263.3708,3.07e-05,2.01e-06,0.0,0 STARLINK-3257,1 50203U 21125AZ  24154.24664272  .00000201  00000-0  30700-4 0  9997,2 50203  53.2187 256.7180 0001197  96.7420 263.3708 15.08830451136210,6917.91,95.438,540.603,538.947,0.0
50203.0,STARLINK-3257,PAYLOAD,2024-06-02 13:52:05,15.08835996,0.0001204,53.2183,255.2311,98.5314,261.5814,5.5522e-05,5.96e-06,0.0,0 STARLINK-3257,1 50203U 21125AZ  24154.57784002  .00000596  00000-0  55522-4 0  9993,2 50203  53.2183 255.2311 0001204  98.5314 261.5814 15.08835996139408,6917.893,95.438,540.591,538.925,0.0
50203.0,STARLINK-3257,PAYLOAD,2024-06-02 17:02:51,15.0883695,0.0001197,53.2178,254.6358,98.6084,261.5043,6.1951e-05,6.98e-06,0.0,0 STARLINK-3257,1 50203U 21125AZ  24154.71031959  .00000698  00000-0  61951-4 0  9991,2 50203  53.2178 254.6358 0001197  98.6084 261.5043 15.08836950136280,6917.89,95.438,540.583,538.927,0.0
50203.0,STARLINK-3257,PAYLOAD,2024-06-03 13:42:52,15.08836559,0.0001227,53.2172,250.7714,108.2633,251.8493,0.00011375,1.523e-05,0.0,0 STARLINK-3257,1 50203U 21125AZ  24155.57144274  .00001523  00000-0  11375-3 0  9993,2 50203  53.2172 250.7714 0001227 108.2633 251.8493 15.08836559139558,6917.891,95.438,540.605,538.907,0.0
50203.0,STARLINK-3257,PAYLOAD,2024-06-03 15:18:15,15.08842443,0.0001217,53.2182,250.473,92.1064,268.0068,0.00012896,1.765e-05,0.0,0 STARLINK-3257,1 50203U 21125AZ  24155.63767888  .00001765  00000-0  12896-3 0  9999,2 50203  53.2182 250.4730 0001217  92.1064 268.0068 15.08842443139560,6917.873,95.437,540.58,538.896,0.0
50203.0,STARLINK-3257,PAYLOAD,2024-06-04 10:22:53,15.08836738,0.0001183,53.2173,246.904,93.8425,266.2702,6.8174e-05,7.97e-06,0.0,0 STARLINK-3257,1 50203U 21125AZ  24156.43256707  .00000797  00000-0  68174-4 0  9996,2 50203  53.2173 246.9040 0001183  93.8425 266.2702 15.08836738136545,6917.89,95.438,540.574,538.937,0.0
50203.0,STARLINK-3257,PAYLOAD,2024-06-05 05:27:30,15.08842874,0.0001261,53.2176,243.3366,88.475,271.6387,0.00014082,1.954e-05,0.0,0 STARLINK-3257,1 50203U 21125AZ  24157.22744139  .00001954  00000-0  14082-3 0  9999,2 50203  53.2176 243.3366 0001261  88.4750 271.6387 15.08842874136668,6917.872,95.437,540.609,538.864,0.0
50203.0,STARLINK-3257,PAYLOAD,2024-06-05 11:49:03,15.08849874,0.000109,53.2167,242.1467,75.7209,284.3904,6.5718e-05,7.59e-06,0.0,0 STARLINK-3257,1 50203U 21125AZ  24157.49239929  .00000759  00000-0  65718-4 0  9999,2 50203  53.2167 242.1467 0001090  75.7209 284.3904 15.08849874139841,6917.85,95.437,540.469,538.961,0.0
50203.0,STARLINK-3257,PAYLOAD,2024-06-06 11:39:49,15.08850671,0.0001339,53.2168,237.6851,83.2186,276.8958,7.3119e-05,8.76e-06,0.0,0 STARLINK-3257,1 50203U 21125AZ  24158.48599489  .00000876  00000-0  73119-4 0  9993,2 50203  53.2168 237.6851 0001339  83.2186 276.8958 15.08850671136852,6917.848,95.437,540.639,538.786,0.0
50203.0,STARLINK-3257,PAYLOAD,2024-06-07 14:41:23,15.08845701,0.0001399,53.2168,232.6266,105.8463,254.2683,-4.4471e-05,-9.96e-06,0.0,0 STARLINK-3257,1 50203U 21125AZ  24159.61207661 -.00000996  00000-0 -44471-4 0  9991,2 50203  53.2168 232.6266 0001399 105.8463 254.2683 15.08845701140164,6917.863,95.437,540.696,538.76,0.0
50203.0,STARLINK-3257,PAYLOAD,2024-06-08 14:32:09,15.08829464,0.0001511,53.2174,228.1677,95.1634,264.953,0.00047805,7.326e-05,0.0,0 STARLINK-3257,1 50203U 21125AZ  24160.60567061  .00007326  00000-0  47805-3 0  9990,2 50203  53.2174 228.1677 0001511  95.1634 264.9530 15.08829464140318,6917.913,95.438,540.823,538.732,0.0
50203.0,STARLINK-3257,PAYLOAD,2024-06-09 11:12:12,15.08826058,0.0001364,53.2174,224.3026,102.8211,257.2933,-2.2249e-05,-6.42e-06,0.0,0 STARLINK-3257,1 50203U 21125AZ  24161.46681251 -.00000642  00000-0 -22249-4 0  9995,2 50203  53.2174 224.3026 0001364 102.8211 257.2933 15.08826058137300,6917.923,95.438,540.732,538.844,0.0
50203.0,STARLINK-3257,PAYLOAD,2024-06-09 14:22:58,15.08825433,0.0001373,53.2168,223.7071,95.4226,264.6922,-9.5867e-05,-1.813e-05,0.0,0 STARLINK-3257,1 50203U 21125AZ  24161.59928928 -.00001813  00000-0 -95867-4 0  9991,2 50203  53.2168 223.7071 0001373  95.4226 264.6922 15.08825433140466,6917.925,95.438,540.74,538.84,0.0
50203.0,STARLINK-3257,PAYLOAD,2024-06-09 20:44:30,15.08834543,0.0001314,53.2167,222.5196,95.3105,264.8037,3.8472e-05,3.24e-06,0.0,0 STARLINK-3257,1 50203U 21125AZ  24161.86424620  .00000324  00000-0  38472-4 0  9994,2 50203  53.2167 222.5196 0001314  95.3105 264.8037 15.08834543137366,6917.897,95.438,540.671,538.853,0.0
50203.0,STARLINK-3257,PAYLOAD,2024-06-10 11:02:58,15.08847284,0.0001189,53.216,219.8444,94.1191,265.9937,0.0004785,7.337e-05,0.0,0 STARLINK-3257,1 50203U 21125AZ  24162.46040506  .00007337  00000-0  47850-3 0  9998,2 50203  53.2160 219.8444 0001189  94.1191 265.9937 15.08847284140592,6917.858,95.437,540.546,538.901,0.0
50203.0,STARLINK-3257,PAYLOAD,2024-06-10 20:35:17,15.0884727,0.0001199,53.2156,218.0606,91.7145,268.3984,0.00045127,6.903e-05,0.0,0 STARLINK-3257,1 50203U 21125AZ  24162.85784640  .00006903  00000-0  45127-3 0  9998,2 50203  53.2156 218.0606 0001199  91.7145 268.3984 15.08847270140652,6917.858,95.437,540.553,538.894,0.0
50203.0,STARLINK-3257,PAYLOAD,2024-06-11 04:32:13,15.08840108,0.0001315,53.2157,216.5731,90.8028,269.3115,0.0001483,2.073e-05,0.0,0 STARLINK-3257,1 50203U 21125AZ  24163.18904857  .00002073  00000-0  14830-3 0  9990,2 50203  53.2157 216.5731 0001315  90.8028 269.3115 15.08840108137561,6917.88,95.438,540.655,538.835,0.0
50203.0,STARLINK-3257,PAYLOAD,2024-06-11 10:53:46,15.08840537,0.0001227,53.2159,215.384,90.9895,269.1237,0.00020133,2.918e-05,0.0,0 STARLINK-3257,1 50203U 21125AZ  24163.45400942  .00002918  00000-0  20133-3 0  9997,2 50203  53.2159 215.3840 0001227  90.9895 269.1237 15.08840537140749,6917.879,95.438,540.593,538.895,0.0
50203.0,STARLINK-3257,PAYLOAD,2024-06-11 20:26:05,15.08837329,0.0001388,53.217,213.6013,91.7641,268.351,4.9101e-05,4.94e-06,0.0,0 STARLINK-3257,1 50203U 21125AZ  24163.85145056  .00000494  00000-0  49101-4 0  9997,2 50203  53.2170 213.6013 0001388  91.7641 268.3510 15.08837329140808,6917.889,95.438,540.714,538.793,0.0
